[{"OBJECT_NAME":"STARLINK-30990","OBJECT_ID":"2023-186F","EPOCH":"2026-03-09T22:00:01.999584","MEAN_MOTION":15.23062436,"ECCENTRICITY":0.00016881,"INCLINATION":43.0018,"RA_OF_ASC_NODE":65.6206,"ARG_OF_PERICENTER":254.7996,"MEAN_ANOMALY":70.719,"EPHEMERIS_TYPE":0,"CLASSIFICATION_TYPE":"U","NORAD_CAT_ID":58478,"ELEMENT_SET_NO":999,"REV_AT_EPOCH":573,"BSTAR":0.050419085,"MEAN_MOTION_DOT":0.01311884,"MEAN_MOTION_DDOT":0},{"OBJECT_NAME":"HJS-6B","OBJECT_ID":"2025-067B","EPOCH":"2026-03-09T22:47:53.244384","MEAN_MOTION":15.37735006,"ECCENTRICITY":0.00109528,"INCLINATION":54.9906,"RA_OF_ASC_NODE":108.3708,"ARG_OF_PERICENTER":80.4529,"MEAN_ANOMALY":279.7736,"EPHEMERIS_TYPE":0,"CLASSIFICATION_TYPE":"U","NORAD_CAT_ID":63429,"ELEMENT_SET_NO":999,"REV_AT_EPOCH":5275,"BSTAR":0.00024552355,"MEAN_MOTION_DOT":8.86e-5,"MEAN_MOTION_DDOT":0}]
